NORAD_CAT_ID,OBJECT_NAME,OBJECT_TYPE,EPOCH,MEAN_MOTION,ECCENTRICITY,INCLINATION,RA_OF_ASC_NODE,ARG_OF_PERICENTER,MEAN_ANOMALY,BSTAR,MEAN_MOTION_DOT,MEAN_MOTION_DDOT,TLE_LINE0,TLE_LINE1,TLE_LINE2,SEMIMAJOR_AXIS,PERIOD,APOGEE,PERIGEE,DECAYED
53179.0,STARLINK-4276,PAYLOAD,2023-11-25 02:57:31,15.08847593,0.0001716,53.2165,274.7217,73.5795,286.5385,0.00044341,6.777e-05,0.0,0 STARLINK-4276,1 53179U 22083AZ  23329.12327760  .00006777  00000-0  44341-3 0  9993,2 53179  53.2165 274.7217 0001716  73.5795 286.5385 15.08847593 75773,6917.857,95.437,540.909,538.535,0.0
53179.0,STARLINK-4276,PAYLOAD,2023-11-26 02:48:17,15.08889966,0.000155,53.217,270.2625,83.5856,276.5312,0.0016003,0.00025308,0.0,0 STARLINK-4276,1 53179U 22083AZ  23330.11686413  .00025308  00000-0  16003-2 0  9991,2 53179  53.2170 270.2625 0001550  83.5856 276.5312 15.08889966 76565,6917.728,95.434,540.665,538.52,0.0
53179.0,STARLINK-4276,PAYLOAD,2023-11-27 02:39:06,15.08803643,0.0001628,53.2176,265.8022,68.0737,292.0428,-0.00076043,-0.00012358,0.0,0 STARLINK-4276,1 53179U 22083AZ  23331.11048940 -.00012358  00000-0 -76043-3 0  9993,2 53179  53.2176 265.8022 0001628  68.0737 292.0428 15.08803643 76710,6917.992,95.44,540.983,538.73,0.0
53179.0,STARLINK-4276,PAYLOAD,2023-11-28 02:29:52,15.08862757,0.0001737,53.2184,261.3415,86.3707,273.7484,0.0016561,0.00026184,0.0,0 STARLINK-4276,1 53179U 22083AZ  23332.10408394  .00026184  00000-0  16561-2 0  9994,2 53179  53.2184 261.3415 0001737  86.3707 273.7484 15.08862757 76862,6917.811,95.436,540.877,538.474,0.0
53179.0,STARLINK-4276,PAYLOAD,2023-11-28 19:59:07,15.08853898,0.0001629,53.217,258.0706,101.9306,258.1869,0.00012044,1.63e-05,0.0,0 STARLINK-4276,1 53179U 22083AZ  23332.83272176  .00001630  00000-0  12044-3 0  9993,2 53179  53.2170 258.0706 0001629 101.9306 258.1869 15.08853898 76974,6917.838,95.437,540.83,538.576,0.0
53179.0,STARLINK-4276,PAYLOAD,2023-11-28 23:09:53,15.08854984,0.0001558,53.217,257.4759,98.4831,261.6338,2.7011e-05,1.42e-06,0.0,0 STARLINK-4276,1 53179U 22083AZ  23332.96520000  .00000142  00000-0  27011-4 0  9997,2 53179  53.2170 257.4759 0001558  98.4831 261.6338 15.08854984 76358,6917.835,95.437,540.777,538.622,0.0
53179.0,STARLINK-4276,PAYLOAD,2023-11-30 02:11:26,15.08838372,0.0001791,53.2174,252.4215,97.8912,262.2283,0.00032969,4.963e-05,0.0,0 STARLINK-4276,1 53179U 22083AZ  23334.09128043  .00004963  00000-0  32969-3 0  9996,2 53179  53.2174 252.4215 0001791  97.8912 262.2283 15.08838372 77165,6917.885,95.438,540.989,538.511,0.0
53179.0,STARLINK-4276,PAYLOAD,2023-12-01 03:37:37,15.0884174,0.000141,53.2166,247.6633,98.4037,261.7115,0.00053173,8.185e-05,0.0,0 STARLINK-4276,1 53179U 22083AZ  23335.15112748  .00008185  00000-0  53173-3 0  9999,2 53179  53.2166 247.6633 0001410  98.4037 261.7115 15.08841740 77328,6917.875,95.437,540.715,538.765,0.0
53179.0,STARLINK-4276,PAYLOAD,2023-12-01 22:42:14,15.08852413,0.0001439,53.2181,244.089,82.7587,277.3569,0.00055105,8.496e-05,0.0,0 STARLINK-4276,1 53179U 22083AZ  23335.94600388  .00008496  00000-0  55105-3 0  9990,2 53179  53.2181 244.0890 0001439  82.7587 277.3569 15.08852413 76805,6917.842,95.437,540.703,538.712,0.0
53179.0,STARLINK-4276,PAYLOAD,2023-12-02 00:17:37,15.08873188,0.0001469,53.2171,243.7987,94.1394,265.9766,0.0011856,0.00018648,0.0,0 STARLINK-4276,1 53179U 22083AZ  23336.01224009  .00018648  00000-0  11856-2 0  9995,2 53179  53.2171 243.7987 0001469  94.1394 265.9766 15.08873188 77459,6917.779,95.435,540.66,538.628,0.0
53179.0,STARLINK-4276,PAYLOAD,2023-12-03 03:19:11,15.08832193,0.0001397,53.2161,238.7458,99.0203,261.0947,4.0712e-06,-2.23e-06,0.0,0 STARLINK-4276,1 53179U 22083AZ  23337.13833035 -.00000223  00000-0  40712-5 0  9991,2 53179  53.2161 238.7458 0001397  99.0203 261.0947 15.08832193 77626,6917.904,95.438,540.736,538.803,0.0
53179.0,STARLINK-4276,PAYLOAD,2023-12-04 03:09:59,15.08839973,0.0001561,53.216,234.2804,112.1532,247.9626,0.00013656,1.886e-05,0.0,0 STARLINK-4276,1 53179U 22083AZ  23338.13193393  .00001886  00000-0  13656-3 0  9998,2 53179  53.2160 234.2804 0001561 112.1532 247.9626 15.08839973 77132,6917.88,95.438,540.825,538.666,0.0
53179.0,STARLINK-4276,PAYLOAD,2023-12-04 17:28:27,15.08844014,0.0001527,53.2161,231.604,106.8125,253.3035,0.00042389,6.465e-05,0.0,0 STARLINK-4276,1 53179U 22083AZ  23338.72809504  .00006465  00000-0  42389-3 0  9994,2 53179  53.2161 231.6040 0001527 106.8125 253.3035 15.08844014 77863,6917.868,95.437,540.789,538.677,0.0
53179.0,STARLINK-4276,PAYLOAD,2023-12-04 20:39:13,15.08846818,0.000157,53.2163,231.0094,106.6573,253.4591,0.00043026,6.567e-05,0.0,0 STARLINK-4276,1 53179U 22083AZ  23338.86057373  .00006567  00000-0  43026-3 0  9990,2 53179  53.2163 231.0094 0001570 106.6573 253.4591 15.08846818 77245,6917.86,95.437,540.811,538.638,0.0
53179.0,STARLINK-4276,PAYLOAD,2023-12-04 23:49:59,15.08852901,0.0001525,53.2161,230.4149,103.5998,256.5164,0.00051281,7.886e-05,0.0,0 STARLINK-4276,1 53179U 22083AZ  23338.99305145  .00007886  00000-0  51281-3 0  9994,2 53179  53.2161 230.4149 0001525 103.5998 256.5164 15.08852901 77266,6917.841,95.437,540.761,538.651,0.0
53179.0,STARLINK-4276,PAYLOAD,2023-12-05 17:19:14,15.08843646,0.0001524,53.2165,227.143,109.4686,250.6471,7.7611e-05,9.48e-06,0.0,0 STARLINK-4276,1 53179U 22083AZ  23339.72169273  .00000948  00000-0  77611-4 0  9994,2 53179  53.2165 227.1430 0001524 109.4686 250.6471 15.08843646 78010,6917.869,95.437,540.789,538.68,0.0
53179.0,STARLINK-4276,PAYLOAD,2023-12-05 23:40:47,15.08824538,0.0001295,53.2162,225.9541,100.1604,259.9535,-0.00033271,-5.577e-05,0.0,0 STARLINK-4276,1 53179U 22083AZ  23339.98665871 -.00005577  00000-0 -33271-3 0  9995,2 53179  53.2162 225.9541 0001295 100.1604 259.9535 15.08824538 78055,6917.928,95.439,540.689,538.897,0.0
53179.0,STARLINK-4276,PAYLOAD,2023-12-08 00:57:44,15.08850002,8.59e-05,53.216,216.7358,91.2223,268.8867,0.00038038,5.773e-05,0.0,0 STARLINK-4276,1 53179U 22083AZ  23342.04009904  .00005773  00000-0  38038-3 0  9997,2 53179  53.2160 216.7358 0000859  91.2223 268.8867 15.08850002 78365,6917.85,95.437,540.309,539.121,0.0
53179.0,STARLINK-4276,PAYLOAD,2023-12-09 00:48:30,15.08854179,9.29e-05,53.2159,212.2748,94.0578,266.052,0.00026975,4.01e-05,0.0,0 STARLINK-4276,1 53179U 22083AZ  23343.03369189  .00004010  00000-0  26975-3 0  9991,2 53179  53.2159 212.2748 0000929  94.0578 266.0520 15.08854179 78511,6917.837,95.437,540.345,539.059,0.0
53179.0,STARLINK-4276,PAYLOAD,2023-12-10 00:39:17,15.08848912,9.37e-05,53.2161,207.8141,93.0989,267.011,0.00016947,2.411e-05,0.0,0 STARLINK-4276,1 53179U 22083AZ  23344.02728838  .00002411  00000-0  16947-3 0  9992,2 53179  53.2161 207.8141 0000937  93.0989 267.0110 15.08848912 78665,6917.853,95.437,540.366,539.07,0.0
53179.0,STARLINK-4276,PAYLOAD,2023-12-10 19:43:55,15.08841415,0.0001213,53.2158,204.2429,77.3086,282.8041,2.8211e-05,1.61e-06,0.0,0 STARLINK-4276,1 53179U 22083AZ  23344.82217242  .00000161  00000-0  28211-4 0  9990,2 53179  53.2158 204.2429 0001213  77.3086 282.8041 15.08841415 78784,6917.876,95.437,540.58,538.902,0.0
53179.0,STARLINK-4276,PAYLOAD,2023-12-10 21:19:18,15.0884106,0.0001476,53.2153,203.9445,93.9658,266.1503,4.3039e-05,3.97e-06,0.0,0 STARLINK-4276,1 53179U 22083AZ  23344.88841217  .00000397  00000-0  43039-4 0  9997,2 53179  53.2153 203.9445 0001476  93.9658 266.1503 15.08841060 78158,6917.877,95.437,540.763,538.721,0.0
53179.0,STARLINK-4276,PAYLOAD,2023-12-11 21:10:05,15.08842677,0.000146,53.2153,199.4908,84.817,275.2988,0.00018941,2.728e-05,0.0,0 STARLINK-4276,1 53179U 22083AZ  23345.88201189  .00002728  00000-0  18941-3 0  9999,2 53179  53.2153 199.4908 0001460  84.8170 275.2988 15.08842677 78302,6917.872,95.437,540.747,538.727,0.0
53179.0,STARLINK-4276,PAYLOAD,2023-12-12 21:00:52,15.08844085,0.0001516,53.2158,195.0345,92.1055,268.011,0.00013754,1.902e-05,0.0,0 STARLINK-4276,1 53179U 22083AZ  23346.87561160  .00001902  00000-0  13754-3 0  9997,2 53179  53.2158 195.0345 0001516  92.1055 268.0110 15.08844085 78458,6917.868,95.437,540.782,538.684,0.0
53179.0,STARLINK-4276,PAYLOAD,2023-12-13 19:16:16,15.08841203,0.0001567,53.216,190.8716,99.3378,260.7791,4.7767e-05,4.72e-06,0.0,0 STARLINK-4276,1 53179U 22083AZ  23347.80297124  .00000472  00000-0  47767-4 0  9990,2 53179  53.2160 190.8716 0001567  99.3378 260.7791 15.08841203 79239,6917.877,95.437,540.826,538.658,0.0
53179.0,STARLINK-4276,PAYLOAD,2023-12-14 20:42:27,15.08838288,0.0001464,53.2151,186.1085,88.6016,271.5144,2.7504e-05,1.5e-06,0.0,0 STARLINK-4276,1 53179U 22083AZ  23348.86281347  .00000150  00000-0  27504-4 0  9997,2 53179  53.2151 186.1085 0001464  88.6016 271.5144 15.08838288 79390,6917.886,95.438,540.763,538.738,0.0
53179.0,STARLINK-4276,PAYLOAD,2023-12-15 18:57:52,15.08822863,0.0001507,53.2151,181.948,75.2031,284.9128,-9.9819e-05,-1.875e-05,0.0,0 STARLINK-4276,1 53179U 22083AZ  23349.79018894 -.00001875  00000-0 -99819-4 0  9990,2 53179  53.2151 181.9480 0001507  75.2031 284.9128 15.08822863 79537,6917.933,95.439,540.84,538.755,0.0
53179.0,STARLINK-4276,PAYLOAD,2023-12-15 20:33:15,15.08825894,0.0001508,53.2163,181.6505,72.2528,287.8628,-1.8024e-05,-5.75e-06,0.0,0 STARLINK-4276,1 53179U 22083AZ  23349.85643312 -.00000575  00000-0 -18024-4 0  9991,2 53179  53.2163 181.6505 0001508  72.2528 287.8628 15.08825894 78908,6917.924,95.438,540.832,538.745,0.0
53179.0,STARLINK-4276,PAYLOAD,2023-12-16 20:24:03,15.08802828,0.0001567,53.2161,177.1928,89.7845,270.3326,0.00049691,7.621e-05,0.0,0 STARLINK-4276,1 53179U 22083AZ  23350.85004255  .00007621  00000-0  49691-3 0  9990,2 53179  53.2161 177.1928 0001567  89.7845 270.3326 15.08802828 79696,6917.994,95.44,540.943,538.775,0.0
53179.0,STARLINK-4276,PAYLOAD,2023-12-17 18:39:27,15.08834427,0.0001349,53.216,173.0314,83.1294,276.9852,0.0001605,2.267e-05,0.0,0 STARLINK-4276,1 53179U 22083AZ  23351.77739886  .00002267  00000-0  16050-3 0  9991,2 53179  53.2160 173.0314 0001349  83.1294 276.9852 15.08834427 79835,6917.897,95.438,540.696,538.829,0.0
